51646,ONEWEB-0456,2022,109.89,148.0,+,87.89,Active,1,LEO,French Guiana,UK,Commercial,Communications,Soyuz,1 51646U 22012AA  24009.93084788  .00000697  00000+0  19600-2 0  9990,2 51646  87.8889 212.8834 0001861  89.6411 270.4930 13.10372276 92889,13.10372276,0.0001861,LEO
51647,ONEWEB-0457,2022,109.89,148.0,+,87.89,Active,1,LEO,French Guiana,UK,Commercial,Communications,Soyuz,1 51647U 22012AB  24009.60263889 -.00000467  00000+0 -13754-2 0  9997,2 51647  87.8899 212.9568 0001086  77.8519 282.2730 13.10374622 92845,13.10374622,0.0001086,LEO
51648,ONEWEB-0458,2022,109.89,148.0,+,87.89,Active,1,LEO,French Guiana,UK,Commercial,Communications,Soyuz,1 51648U 22012AC  24009.92920260  .00000677  00000+0  19022-2 0  9991,2 51648  87.8901 212.9058 0001353  97.2684 262.8597 13.10375293 92840,13.10375293,0.0001353,LEO
51650,ONEWEB-0463,2022,109.29,148.0,+,87.92,Active,1,LEO,French Guiana,UK,Commercial,Communications,Soyuz,1 51650U 22012AE  24009.92299973  .00000031  00000+0  46179-4 0  9993,2 51650  87.9210 182.7221 0001373  90.7097 269.4191 13.17649657 96562,13.17649657,0.0001373,LEO
51651,ONEWEB-0464,2022,109.89,148.0,+,87.89,Active,1,LEO,French Guiana,UK,Commercial,Communications,Soyuz,1 51651U 22012AF  24009.92597368  .00000576  00000+0  16144-2 0  9994,2 51651  87.8901 212.8950 0001861  97.4933 262.6406 13.10376220 92867,13.1037622,0.0001861,LEO
51652,ONEWEB-0468,2022,109.89,148.0,+,87.89,Active,1,LEO,French Guiana,UK,Commercial,Communications,Soyuz,1 51652U 22012AG  24010.08518546  .00000691  00000+0  19427-2 0  9990,2 51652  87.8900 212.8568 0001535  94.7787 265.3516 13.10376926 94156,13.10376926,0.0001535,LEO
51653,ONEWEB-0473,2022,109.89,148.0,+,87.89,Active,1,LEO,French Guiana,UK,Commercial,Communications,Soyuz,1 51653U 22012AH  24010.07055786  .00000269  00000+0  73390-3 0  9993,2 51653  87.8903 212.8633 0001496  94.4381 265.6917 13.10377915 94164,13.10377915,0.0001496,LEO
